{"type": "FeatureCollection", "features": [ {"type": "Feature", "properties": {"norad_id": 39019, "name": "PLEIADES 1B", "group": "resource", "lat": 40.94441074955042, "lon": -98.81622751315162, "alt_km": 694.0553457027881, "timestamp": "2025-12-27T14:26:30.173461+00:00", "meta": {"OBJECT_NAME": "PLEIADES 1B", "OBJECT_ID": "2012-068A", "EPOCH": "2025-12-27T07:13:24.356640", "MEAN_MOTION": 14.58566075, "ECCENTRICITY": 0.00011449, "INCLINATION": 98.1772, "RA_OF_ASC_NODE": 73.7215, "ARG_OF_PERICENTER": 87.4119, "MEAN_ANOMALY": 272.7212, "EPHEMERIS_TYPE": 0, "CLASSIFICATION_TYPE": "U", "NORAD_CAT_ID": 39019, "ELEMENT_SET_NO": 999, "REV_AT_EPOCH": 69579, "BSTAR": 9.0497118e-05, "MEAN_MOTION_DOT": 3.75e-06, "MEAN_MOTION_DDOT": 0}, "tle": {"line1": "1 39019U 12068A   25361.30097635  .00000375  00000+0  90497-4 0  9996", "line2": "2 39019  98.1772  73.7215 0001144  87.4119 272.7212 14.58566075695799"}}, "geometry": {"type": "Point", "coordinates": [-98.81622751315162, 40.94441074955042]}}, {"type": "Feature", "properties": {"norad_id": 39030, "name": "GOKTURK 2", "group": "resource", "lat": 12.095154885525002, "lon": 24.182898249575054, "alt_km": 645.0014385436507, "timestamp": "2025-12-27T14:26:30.173472+00:00", "meta": {"OBJECT_NAME": "GOKTURK 2", "OBJECT_ID": "2012-073A", "EPOCH": "2025-12-27T07:10:23.385792", "MEAN_MOTION": 14.75310164, "ECCENTRICITY": 0.00014997, "INCLINATION": 97.6888, "RA_OF_ASC_NODE": 202.2361, "ARG_OF_PERICENTER": 105.8261, "MEAN_ANOMALY": 254.3115, "EPHEMERIS_TYPE": 0, "CLASSIFICATION_TYPE": "U", "NORAD_CAT_ID": 39030, "ELEMENT_SET_NO": 999, "REV_AT_EPOCH": 69916, "BSTAR": 6.3204224e-05, "MEAN_MOTION_DOT": 3.81e-06, "MEAN_MOTION_DDOT": 0}, "tle": {"line1": "1 39030U 12073A   25361.29888178  .00000381  00000+0  63204-4 0  9996", "line2": "2 39030  97.6888 202.2361 0001499 105.8261 254.3115 14.75310164699169"}}, "geometry": {"type": "Point", "coordinates": [24.182898249575054, 12.095154885525002]}}, {"type": "Feature", "properties": {"norad_id": 39084, "name": "LANDSAT 8", "group": "resource", "lat": -50.62533140610026, "lon": -120.67215646871712, "alt_km": 709.9609464012665, "timestamp": "2025-12-27T14:26:30.173482+00:00", "meta": {"OBJECT_NAME": "LANDSAT 8", "OBJECT_ID": "2013-008A", "EPOCH": "2025-12-27T06:47:28.853376", "MEAN_MOTION": 14.57117215, "ECCENTRICITY": 0.00010558, "INCLINATION": 98.2054, "RA_OF_ASC_NODE": 69.1405, "ARG_OF_PERICENTER": 94.4738, "MEAN_ANOMALY": 265.6581, "EPHEMERIS_TYPE": 0, "CLASSIFICATION_TYPE": "U", "NORAD_CAT_ID": 39084, "ELEMENT_SET_NO": 999, "REV_AT_EPOCH": 67286, "BSTAR": 0.0001140506, "MEAN_MOTION_DOT": 4.69e-06, "MEAN_MOTION_DDOT": 0}, "tle": {"line1": "1 39084U 13008A   25361.28297284  .00000469  00000+0  11405-3 0  9997", "line2": "2 39084  98.2054  69.1405 0001055  94.4738 265.6581 14.57117215672861"}}, "geometry": {"type": "Point", "coordinates": [-120.67215646871712, -50.62533140610026]}}, {"type": "Feature", "properties": {"norad_id": 39086, "name": "SARAL", "group": "resource", "lat": -3.983373382663722, "lon": -174.06173125471125, "alt_km": 785.7497717187325, "timestamp": "2025-12-27T14:26:30.173506+00:00", "meta": {"OBJECT_NAME": "SARAL", "OBJECT_ID": "2013-009A", "EPOCH": "2025-12-27T06:04:48.844704", "MEAN_MOTION": 14.32762198, "ECCENTRICITY": 0.00029437, "INCLINATION": 98.5504, "RA_OF_ASC_NODE": 184.9943, "ARG_OF_PERICENTER": 81.5712, "MEAN_ANOMALY": 278.5805, "EPHEMERIS_TYPE": 0, "CLASSIFICATION_TYPE": "U", "NORAD_CAT_ID": 39086, "ELEMENT_SET_NO": 999, "REV_AT_EPOCH": 67098, "BSTAR": 7.5637908e-05, "MEAN_MOTION_DOT": 1.62e-06, "MEAN_MOTION_DDOT": 0}, "tle": {"line1": "1 39086U 13009A   25361.25334311  .00000162  00000+0  75638-4 0  9999", "line2": "2 39086  98.5504 184.9943 0002943  81.5712 278.5805 14.32762198670987"}}, "geometry": {"type": "Point", "coordinates": [-174.06173125471125, -3.983373382663722]}}, {"type": "Feature", "properties": {"norad_id": 39150, "name": "GAOFEN-1", "group": "resource", "lat": -48.71055847414325, "lon": 81.1296616938061, "alt_km": 658.1978805807275, "timestamp": "2025-12-27T14:26:30.173518+00:00", "meta": {"OBJECT_NAME": "GAOFEN-1", "OBJECT_ID": "2013-018A", "EPOCH": "2025-12-27T06:31:58.823904", "MEAN_MOTION": 14.76504092, "ECCENTRICITY": 0.00185581, "INCLINATION": 97.9304, "RA_OF_ASC_NODE": 71.6729, "ARG_OF_PERICENTER": 99.0325, "MEAN_ANOMALY": 261.2986, "EPHEMERIS_TYPE": 0, "CLASSIFICATION_TYPE": "U", "NORAD_CAT_ID": 39150, "ELEMENT_SET_NO": 999, "REV_AT_EPOCH": 68287, "BSTAR": 8.0993683e-05, "MEAN_MOTION_DOT": 5.15e-06, "MEAN_MOTION_DDOT": 0}, "tle": {"line1": "1 39150U 13018A   25361.27220861  .00000515  00000+0  80994-4 0  9990", "line2": "2 39150  97.9304  71.6729 0018558  99.0325 261.2986 14.76504092682872"}}, "geometry": {"type": "Point", "coordinates": [81.1296616938061, -48.71055847414325]}}, {"type": "Feature", "properties": {"norad_id": 39160, "name": "VNREDSAT 1", "group": "resource", "lat": 64.19516248792999, "lon": -106.88015687545412, "alt_km": 670.295556071278, "timestamp": "2025-12-27T14:26:30.173529+00:00", "meta": {"OBJECT_NAME": "VNREDSAT 1", "OBJECT_ID": "2013-021B", "EPOCH": "2025-12-27T07:21:48.569760", "MEAN_MOTION": 14.64943957, "ECCENTRICITY": 0.00011677, "INCLINATION": 97.935, "RA_OF_ASC_NODE": 56.0696, "ARG_OF_PERICENTER": 83.372, "MEAN_ANOMALY": 276.7616, "EPHEMERIS_TYPE": 0, "CLASSIFICATION_TYPE": "U", "NORAD_CAT_ID": 39160, "ELEMENT_SET_NO": 999, "REV_AT_EPOCH": 67512, "BSTAR": 0.00012891738, "MEAN_MOTION_DOT": 6.44e-06, "MEAN_MOTION_DDOT": 0}, "tle": {"line1": "1 39160U 13021B   25361.30681215  .00000644  00000+0  12892-3 0  9997", "line2": "2 39160  97.9350  56.0696 0001167  83.3720 276.7616 14.64943957675122"}}, "geometry": {"type": "Point", "coordinates": [-106.88015687545412, 64.19516248792999]}}, {"type": "Feature", "properties": {"norad_id": 39227, "name": "ARIRANG-5 (KOMPSAT-5)", "group": "resource", "lat": 32.32178007002975, "lon": 10.551389168735048, "alt_km": 552.1142162458973, "timestamp": "2025-12-27T14:26:30.173539+00:00", "meta": {"OBJECT_NAME": "ARIRANG-5 (KOMPSAT-5)", "OBJECT_ID": "2013-042A", "EPOCH": "2025-12-27T05:48:30.342240", "MEAN_MOTION": 15.04492501, "ECCENTRICITY": 0.00029245, "INCLINATION": 97.6167, "RA_OF_ASC_NODE": 185.34, "ARG_OF_PERICENTER": 32.1514, "MEAN_ANOMALY": 327.989, "EPHEMERIS_TYPE": 0, "CLASSIFICATION_TYPE": "U", "NORAD_CAT_ID": 39227, "ELEMENT_SET_NO": 999, "REV_AT_EPOCH": 67800, "BSTAR": 0.00016247714, "MEAN_MOTION_DOT": 2.213e-05, "MEAN_MOTION_DDOT": 0}, "tle": {"line1": "1 39227U 13042A   25361.24201785  .00002213  00000+0  16248-3 0  9990", "line2": "2 39227  97.6167 185.3400 0002924  32.1514 327.9890 15.04492501678005"}}, "geometry": {"type": "Point", "coordinates": [10.551389168735048, 32.32178007002975]}}, {"type": "Feature", "properties": {"norad_id": 39418, "name": "SKYSAT-A", "group": "resource", "lat": -1.7081004607398367, "lon": -128.86454005007195, "alt_km": 519.2183982228607, "timestamp": "2025-12-27T14:26:30.173550+00:00", "meta": {"OBJECT_NAME": "SKYSAT-A", "OBJECT_ID": "2013-066C", "EPOCH": "2025-12-27T02:31:13.632096", "MEAN_MOTION": 15.11707767, "ECCENTRICITY": 0.00218076, "INCLINATION": 97.4087, "RA_OF_ASC_NODE": 50.8762, "ARG_OF_PERICENTER": 185.5174, "MEAN_ANOMALY": 174.582, "EPHEMERIS_TYPE": 0, "CLASSIFICATION_TYPE": "U", "NORAD_CAT_ID": 39418, "ELEMENT_SET_NO": 999, "REV_AT_EPOCH": 66247, "BSTAR": 0.00026895435, "MEAN_MOTION_DOT": 4.542e-05, "MEAN_MOTION_DDOT": 0}, "tle": {"line1": "1 39418U 13066C   25361.10501889  .00004542  00000+0  26895-3 0  9997", "line2": "2 39418  97.4087  50.8762 0021807 185.5174 174.5820 15.11707767662473"}}, "geometry": {"type": "Point", "coordinates": [-128.86454005007195, -1.7081004607398367]}}, {"type": "Feature", "properties": {"norad_id": 39419, "name": "DUBAISAT-2", "group": "resource", "lat": 28.51860496070535, "lon": 175.6284419814746, "alt_km": 542.0071375872685, "timestamp": "2025-12-27T14:26:30.173560+00:00", "meta": {"OBJECT_NAME": "DUBAISAT-2", "OBJECT_ID": "2013-066D", "EPOCH": "2025-12-27T05:48:47.312928", "MEAN_MOTION": 15.08501922, "ECCENTRICITY": 0.00096302, "INCLINATION": 97.447, "RA_OF_ASC_NODE": 351.2041, "ARG_OF_PERICENTER": 264.1642, "MEAN_ANOMALY": 95.8489, "EPHEMERIS_TYPE": 0, "CLASSIFICATION_TYPE": "U", "NORAD_CAT_ID": 39419, "ELEMENT_SET_NO": 999, "REV_AT_EPOCH": 66045, "BSTAR": 0.00055327126, "MEAN_MOTION_DOT": 8.58e-05, "MEAN_MOTION_DDOT": 0}, "tle": {"line1": "1 39419U 13066D   25361.24221427  .00008580  00000+0  55327-3 0  9998", "line2": "2 39419  97.4470 351.2041 0009630 264.1642  95.8489 15.08501922660455"}}, "geometry": {"type": "Point", "coordinates": [175.6284419814746, 28.51860496070535]}}, {"type": "Feature", "properties": {"norad_id": 39574, "name": "GPM-CORE", "group": "resource", "lat": 60.64439465412101, "lon": -73.25852353489013, "alt_km": 430.41941328647044, "timestamp": "2025-12-27T14:26:30.173571+00:00", "meta": {"OBJECT_NAME": "GPM-CORE", "OBJECT_ID": "2014-009C", "EPOCH": "2025-12-27T06:12:56.734272", "MEAN_MOTION": 15.44698621, "ECCENTRICITY": 0.00089892, "INCLINATION": 64.9729, "RA_OF_ASC_NODE": 164.0576, "ARG_OF_PERICENTER": 251.976, "MEAN_ANOMALY": 108.0401, "EPHEMERIS_TYPE": 0, "CLASSIFICATION_TYPE": "U", "NORAD_CAT_ID": 39574, "ELEMENT_SET_NO": 999, "REV_AT_EPOCH": 67125, "BSTAR": 0.00021303728, "MEAN_MOTION_DOT": 9.769e-05, "MEAN_MOTION_DDOT": 0}, "tle": {"line1": "1 39574U 14009C   25361.25898998  .00009769  00000+0  21304-3 0  9990", "line2": "2 39574  64.9729 164.0576 0008989 251.9760 108.0401 15.44698621671251"}}, "geometry": {"type": "Point", "coordinates": [-73.25852353489013, 60.64439465412101]}}]}